{
    "links": {
        "self": "http://www.neowsapp.com/rest/v1/neo/3672670?api_key=iIulBulltgU6a56xZRHN4H3l9WmuAYTsLGpBGhQ2"
    },
    "id": "3672670",
    "neo_reference_id": "3672670",
    "name": "(2014 KB46)",
    "designation": "2014 KB46",
    "nasa_jpl_url": "http://ssd.jpl.nasa.gov/sbdb.cgi?sstr=3672670",
    "absolute_magnitude_h": 24.8,
    "estimated_diameter": {
        "kilometers": {
            "estimated_diameter_min": 0.0291443905,
            "estimated_diameter_max": 0.0651688382
        },
        "meters": {
            "estimated_diameter_min": 29.1443904535,
            "estimated_diameter_max": 65.1688382168
        },
        "miles": {
            "estimated_diameter_min": 0.018109479,
            "estimated_diameter_max": 0.0404940262
        },
        "feet": {
            "estimated_diameter_min": 95.6180819754,
            "estimated_diameter_max": 213.8085311752
        }
    },
    "is_potentially_hazardous_asteroid": false,
    "close_approach_data": [
        {
            "close_approach_date": "1947-07-16",
            "close_approach_date_full": "1947-Jul-16 15:50",
            "epoch_date_close_approach": -708855000000,
            "relative_velocity": {
                "kilometers_per_second": "19.1310483092",
                "kilometers_per_hour": "68871.7739132982",
                "miles_per_hour": "42794.2419629602"
            },
            "miss_distance": {
                "astronomical": "0.4306291949",
                "lunar": "167.5147568161",
                "kilometers": "64421210.316854863",
                "miles": "40029483.8990605894"
            },
            "orbiting_body": "Earth"
        },
        {
            "close_approach_date": "2014-06-03",
            "close_approach_date_full": "2014-Jun-03 04:33",
            "epoch_date_close_approach": 1401769980000,
            "relative_velocity": {
                "kilometers_per_second": "7.5935099054",
                "kilometers_per_hour": "27336.6356593888",
                "miles_per_hour": "16985.9223073575"
            },
            "miss_distance": {
                "astronomical": "0.053747635",
                "lunar": "20.907830015",
                "kilometers": "8040531.71353745",
                "miles": "4996154.73201881"
            },
            "orbiting_body": "Earth"
        },
        {
            "close_approach_date": "2017-04-06",
            "close_approach_date_full": "2017-Apr-06 08:37",
            "epoch_date_close_approach": 1491467820000,
            "relative_velocity": {
                "kilometers_per_second": "18.1419160543",
                "kilometers_per_hour": "65310.8977953479",
                "miles_per_hour": "40581.6520217816"
            },
            "miss_distance": {
                "astronomical": "0.4216546523",
                "lunar": "164.0236597447",
                "kilometers": "63078637.859670601",
                "miles": "39195248.0581962538"
            },
            "orbiting_body": "Earth"
        },
        {
            "close_approach_date": "2093-04-08",
            "close_approach_date_full": "2093-Apr-08 17:24",
            "epoch_date_close_approach": 3890049840000,
            "relative_velocity": {
                "kilometers_per_second": "17.2407696842",
                "kilometers_per_hour": "62066.7708630628",
                "miles_per_hour": "38565.8777065514"
            },
            "miss_distance": {
                "astronomical": "0.3729152092",
                "lunar": "145.0640163788",
                "kilometers": "55787320.986924404",
                "miles": "34664633.8408446152"
            },
            "orbiting_body": "Earth"
        }
    ],
    "orbital_data": {
        "orbit_id": "11",
        "orbit_determination_date": "2017-04-06 08:40:20",
        "first_observation_date": "2014-05-25",
        "last_observation_date": "2014-06-20",
        "data_arc_in_days": 26,
        "observations_used": 35,
        "orbit_uncertainty": "7",
        "minimum_orbit_intersection": ".0387467",
        "jupiter_tisserand_invariant": "3.633",
        "epoch_osculation": "2459000.5",
        "eccentricity": ".4854864956616421",
        "semi_major_axis": "2.043352453089295",
        "inclination": "7.403932237198389",
        "ascending_node_longitude": "244.7352718018231",
        "orbital_period": "1066.874542370675",
        "perihelion_distance": "1.051332431237353",
        "perihelion_argument": "356.8315459625459",
        "aphelion_distance": "3.035372474941237",
        "perihelion_time": "2458937.461368696121",
        "mean_anomaly": "21.27139262219976",
        "mean_motion": ".3374342396436353",
        "equinox": "J2000",
        "orbit_class": {
            "orbit_class_type": "AMO",
            "orbit_class_description": "Near-Earth asteroid orbits similar to that of 1221 Amor",
            "orbit_class_range": "1.017 AU < q (perihelion) < 1.3 AU"
        }
    },
    "is_sentry_object": false
}